{
  "type": "FeatureCollection",
  "features": [
    {
      "type": "Feature",
      "properties": {
        "norad_id": 29876,
        "name": "FENGYUN 1C DEB",
        "group": "fengyun-1c-debris",
        "lat": -9.06739166862545,
        "lon": 46.81496451437129,
        "alt_km": 784.4117537183274,
        "timestamp": "2025-12-21T09:37:22.926588+00:00",
        "meta_object_name": "FENGYUN 1C DEB",
        "meta_object_id": "1999-025FW",
        "meta_epoch": "2025-12-21T03:09:37.600416",
        "meta_mean_motion": 14.2030235,
        "meta_eccentricity": 0.0061019,
        "meta_inclination": 98.3321,
        "meta_ra_of_asc_node": 45.2211,
        "meta_arg_of_pericenter": 352.9097,
        "meta_mean_anomaly": 62.0176,
        "meta_ephemeris_type": 0,
        "meta_classification_type": "U",
        "meta_norad_cat_id": 29876,
        "meta_element_set_no": 999,
        "meta_rev_at_epoch": 98036,
        "meta_bstar": 0.00011294,
        "meta_mean_motion_dot": 2.05e-06,
        "meta_mean_motion_ddot": 0,
        "tle_line1": "1 29876U 99025FW  25355.13168519  .00000205  00000+0  11294-3 0  9997",
        "tle_line2": "2 29876  98.3321  45.2211 0061019 352.9097  62.0176 14.20302350980365"
      },
      "geometry": {
        "type": "Point",
        "coordinates": [
          46.81496451437129,
          -9.06739166862545
        ]
      }
    },
    {
      "type": "Feature",
      "properties": {
        "norad_id": 29877,
        "name": "FENGYUN 1C DEB",
        "group": "fengyun-1c-debris",
        "lat": -7.95282936696623,
        "lon": 1.6754865017275906,
        "alt_km": 844.1013678990257,
        "timestamp": "2025-12-21T09:37:22.926598+00:00",
        "meta_object_name": "FENGYUN 1C DEB",
        "meta_object_id": "1999-025FX",
        "meta_epoch": "2025-12-20T19:19:26.061600",
        "meta_mean_motion": 14.24807583,
        "meta_eccentricity": 0.00462407,
        "meta_inclination": 98.5369,
        "meta_ra_of_asc_node": 359.8938,
        "meta_arg_of_pericenter": 194.5796,
        "meta_mean_anomaly": 343.0189,
        "meta_ephemeris_type": 0,
        "meta_classification_type": "U",
        "meta_norad_cat_id": 29877,
        "meta_element_set_no": 999,
        "meta_rev_at_epoch": 98088,
        "meta_bstar": 0.00031289185,
        "meta_mean_motion_dot": 6.95e-06,
        "meta_mean_motion_ddot": 0,
        "tle_line1": "1 29877U 99025FX  25354.80516275  .00000695  00000+0  31289-3 0  9996",
        "tle_line2": "2 29877  98.5369 359.8938 0046240 194.5796 343.0189 14.24807583980880"
      },
      "geometry": {
        "type": "Point",
        "coordinates": [
          1.6754865017275906,
          -7.95282936696623
        ]
      }
    },
    {
      "type": "Feature",
      "properties": {
        "norad_id": 29878,
        "name": "FENGYUN 1C DEB",
        "group": "fengyun-1c-debris",
        "lat": 9.692332612817397,
        "lon": -11.689440063628325,
        "alt_km": 518.3828855941638,
        "timestamp": "2025-12-21T09:37:22.926608+00:00",
        "meta_object_name": "FENGYUN 1C DEB",
        "meta_object_id": "1999-025FY",
        "meta_epoch": "2025-12-21T00:55:49.334016",
        "meta_mean_motion": 15.11544984,
        "meta_eccentricity": 0.0024471,
        "meta_inclination": 96.9464,
        "meta_ra_of_asc_node": 166.7881,
        "meta_arg_of_pericenter": 141.4808,
        "meta_mean_anomaly": 218.8176,
        "meta_ephemeris_type": 0,
        "meta_classification_type": "U",
        "meta_norad_cat_id": 29878,
        "meta_element_set_no": 999,
        "meta_rev_at_epoch": 98773,
        "meta_bstar": 0.0047859,
        "meta_mean_motion_dot": 0.00082504,
        "meta_mean_motion_ddot": 0,
        "tle_line1": "1 29878U 99025FY  25355.03876544  .00082504  00000+0  47859-2 0  9999",
        "tle_line2": "2 29878  96.9464 166.7881 0024471 141.4808 218.8176 15.11544984987734"
      },
      "geometry": {
        "type": "Point",
        "coordinates": [
          -11.689440063628325,
          9.692332612817397
        ]
      }
    },
    {
      "type": "Feature",
      "properties": {
        "norad_id": 29880,
        "name": "FENGYUN 1C DEB",
        "group": "fengyun-1c-debris",
        "lat": 2.591116445561043,
        "lon": -87.39882523000912,
        "alt_km": 868.6804795389098,
        "timestamp": "2025-12-21T09:37:22.926618+00:00",
        "meta_object_name": "FENGYUN 1C DEB",
        "meta_object_id": "1999-025GA",
        "meta_epoch": "2025-12-20T18:24:09.218304",
        "meta_mean_motion": 13.9393618,
        "meta_eccentricity": 0.02321942,
        "meta_inclination": 98.1954,
        "meta_ra_of_asc_node": 272.4116,
        "meta_arg_of_pericenter": 79.0661,
        "meta_mean_anomaly": 345.5403,
        "meta_ephemeris_type": 0,
        "meta_classification_type": "U",
        "meta_norad_cat_id": 29880,
        "meta_element_set_no": 999,
        "meta_rev_at_epoch": 95674,
        "meta_bstar": 0.00078847551,
        "meta_mean_motion_dot": 1.267e-05,
        "meta_mean_motion_ddot": 0,
        "tle_line1": "1 29880U 99025GA  25354.76677336  .00001267  00000+0  78848-3 0  9999",
        "tle_line2": "2 29880  98.1954 272.4116 0232194  79.0661 345.5403 13.93936180956746"
      },
      "geometry": {
        "type": "Point",
        "coordinates": [
          -87.39882523000912,
          2.591116445561043
        ]
      }
    },
    {
      "type": "Feature",
      "properties": {
        "norad_id": 29881,
        "name": "FENGYUN 1C DEB",
        "group": "fengyun-1c-debris",
        "lat": 64.12036315867807,
        "lon": 165.09396591305617,
        "alt_km": 934.3145906337486,
        "timestamp": "2025-12-21T09:37:22.926629+00:00",
        "meta_object_name": "FENGYUN 1C DEB",
        "meta_object_id": "1999-025GB",
        "meta_epoch": "2025-12-20T21:01:30.942912",
        "meta_mean_motion": 13.59649156,
        "meta_eccentricity": 0.0293091,
        "meta_inclination": 98.7227,
        "meta_ra_of_asc_node": 326.1775,
        "meta_arg_of_pericenter": 50.5786,
        "meta_mean_anomaly": 12.9005,
        "meta_ephemeris_type": 0,
        "meta_classification_type": "U",
        "meta_norad_cat_id": 29881,
        "meta_element_set_no": 999,
        "meta_rev_at_epoch": 93345,
        "meta_bstar": 0.0019196,
        "meta_mean_motion_dot": 1.854e-05,
        "meta_mean_motion_ddot": 0,
        "tle_line1": "1 29881U 99025GB  25354.87605258  .00001854  00000+0  19196-2 0  9998",
        "tle_line2": "2 29881  98.7227 326.1775 0293091  50.5786  12.9005 13.59649156933451"
      },
      "geometry": {
        "type": "Point",
        "coordinates": [
          165.09396591305617,
          64.12036315867807
        ]
      }
    },
    {
      "type": "Feature",
      "properties": {
        "norad_id": 29884,
        "name": "FENGYUN 1C DEB",
        "group": "fengyun-1c-debris",
        "lat": 64.62457178658063,
        "lon": 8.96751884409897,
        "alt_km": 728.8999126937551,
        "timestamp": "2025-12-21T09:37:22.926639+00:00",
        "meta_object_name": "FENGYUN 1C DEB",
        "meta_object_id": "1999-025GE",
        "meta_epoch": "2025-12-20T22:12:31.179168",
        "meta_mean_motion": 14.4032621,
        "meta_eccentricity": 0.0044409,
        "meta_inclination": 99.6024,
        "meta_ra_of_asc_node": 29.3457,
        "meta_arg_of_pericenter": 113.6582,
        "meta_mean_anomaly": 8.4634,
        "meta_ephemeris_type": 0,
        "meta_classification_type": "U",
        "meta_norad_cat_id": 29884,
        "meta_element_set_no": 999,
        "meta_rev_at_epoch": 98667,
        "meta_bstar": 0.00043814,
        "meta_mean_motion_dot": 1.352e-05,
        "meta_mean_motion_ddot": 0,
        "tle_line1": "1 29884U 99025GE  25354.92536087  .00001352  00000+0  43814-3 0  9998",
        "tle_line2": "2 29884  99.6024  29.3457 0044409 113.6582   8.4634 14.40326210986674"
      },
      "geometry": {
        "type": "Point",
        "coordinates": [
          8.96751884409897,
          64.62457178658063
        ]
      }
    },
    {
      "type": "Feature",
      "properties": {
        "norad_id": 29885,
        "name": "FENGYUN 1C DEB",
        "group": "fengyun-1c-debris",
        "lat": 6.821438957888709,
        "lon": 110.877070465519,
        "alt_km": 777.2728146145973,
        "timestamp": "2025-12-21T09:37:22.926649+00:00",
        "meta_object_name": "FENGYUN 1C DEB",
        "meta_object_id": "1999-025GF",
        "meta_epoch": "2025-12-20T19:29:08.141856",
        "meta_mean_motion": 14.13584961,
        "meta_eccentricity": 0.01188208,
        "meta_inclination": 98.3564,
        "meta_ra_of_asc_node": 289.319,
        "meta_arg_of_pericenter": 141.0987,
        "meta_mean_anomaly": 275.1681,
        "meta_ephemeris_type": 0,
        "meta_classification_type": "U",
        "meta_norad_cat_id": 29885,
        "meta_element_set_no": 999,
        "meta_rev_at_epoch": 97571,
        "meta_bstar": 9.1638551e-05,
        "meta_mean_motion_dot": 1.46e-06,
        "meta_mean_motion_ddot": 0,
        "tle_line1": "1 29885U 99025GF  25354.81189979  .00000146  00000+0  91639-4 0  9990",
        "tle_line2": "2 29885  98.3564 289.3190 0118820 141.0987 275.1681 14.13584961975712"
      },
      "geometry": {
        "type": "Point",
        "coordinates": [
          110.877070465519,
          6.821438957888709
        ]
      }
    }
  ]
}